NOAA 1 [-]              
1 04793U 70106A   21274.77035410 -.00000052  00000-0 -51197-4 0  9996
2 04793 101.5976 339.7129 0032007 105.5717   5.1790 12.54000815325161
NOAA 2 (ITOS-D) [-]     
1 06235U 72082A   21275.19107657 -.00000018  00000-0  17808-3 0  9995
2 06235 101.9179 251.1819 0003735 206.0832 164.7070 12.53139503239845
NOAA 3 [-]              
1 06920U 73086A   21275.53909109 -.00000020  00000-0  18836-3 0  9996
2 06920 102.1715 251.6610 0006821  46.3158  62.7738 12.40342486169004
NOAA 4 [-]              
1 07529U 74089A   21275.44765677 -.00000027  00000-0  12027-3 0  9999
2 07529 101.8761 249.7112 0008645 238.4506 292.8581 12.53151272144470
NOAA 5 [-]              
1 09057U 76077A   21274.92174937 -.00000039  00000-0  44015-4 0  9997
2 09057 102.0566 241.0846 0009548 257.9094 164.8207 12.37763170 41752
TIROS N [-]             
1 11060U 78096A   21274.87352983  .00000035  00000-0  38133-4 0  9999
2 11060  98.6766 329.9539 0011060 162.6583 197.4973 14.18324534434951
NOAA 6 [-]              
1 11416U 79057A   21274.90241688  .00000078  00000-0  44275-4 0  9996
2 11416  98.6689 280.3318 0009413 305.4683  54.5622 14.33656634204474
NOAA 7 [-]              
1 12553U 81059A   21275.34619250  .00000004  00000-0  24535-4 0  9993
2 12553  99.0384 311.0547 0012341 126.7581 233.4728 14.17302791 81455
NOAA 8 [-]              
1 13923U 83022A   21275.43635294  .00000037  00000-0  32207-4 0  9994
2 13923  98.6649 262.3246 0014096 242.8482 117.1263 14.28748714  5829
NOAA 9 [-]              
1 15427U 84123A   21275.43929759  .00000027  00000-0  36582-4 0  9999
2 15427  99.0067 239.3128 0014839 173.2664 299.6601 14.16145477900321
NOAA 10 [-]             
1 16969U 86073A   21275.20234950  .00000035  00000-0  31529-4 0  9999
2 16969  98.5431 261.4984 0012190 355.6323  15.0364 14.28146452824232
NOAA 11 [-]             
1 19531U 88089A   21274.87523131  .00000015  00000-0  28669-4 0  9999
2 19531  98.4092 273.4395 0010726 198.6764 161.4018 14.15280284704246
NOAA 12 [-]             
1 21263U 91032A   21274.85406511  .00000032  00000-0  31217-4 0  9998
2 21263  98.5088 277.0589 0014056  20.7698 339.4051 14.25950880579873
NOAA 13 [-]             
1 22739U 93050A   21274.88073759  .00000029  00000-0  37639-4 0  9996
2 22739  98.4777 262.9962 0009752  11.1797 348.9591 14.12795506450549
NOAA 14 [-]             
1 23455U 94089A   21274.81401527  .00000010  00000-0  26844-4 0  9992
2 23455  98.4816 310.0879 0009247 354.9401   5.1678 14.14169117380152
NOAA 15 [B]             
1 25338U 98030A   21275.36586038  .00000064  00000-0  45227-4 0  9991
2 25338  98.6753 302.8974 0009788 335.1810  24.8898 14.26060788216489
NOAA 16 [-]             
1 26536U 00055A   21274.85099776  .00000000  00000-0  22635-4 0  9991
2 26536  98.6764 337.1672 0010615 177.8997 182.2223 14.13287932380825
NOAA 17 [-]             
1 27453U 02032A   21275.47885594  .00000035  00000-0  33658-4 0  9992
2 27453  98.6364 219.2200 0010963 306.4091  53.6077 14.25071661  2123
NOAA 18 [B]             
1 28654U 05018A   21275.46912915  .00000107  00000-0  82295-4 0  9991
2 28654  98.9839 340.7073 0013797 344.1781  15.8957 14.12642731843643
NOAA 19 [+]             
1 33591U 09005A   21275.30096120  .00000069  00000-0  62539-4 0  9997
2 33591  99.1789 298.6299 0013801 188.9584 171.1343 14.12498277652005
SUOMI NPP [+]           
1 37849U 11061A   21275.45334296  .00000018  00000-0  29244-4 0  9997
2 37849  98.7429 212.7236 0001199  63.0988  74.4403 14.19544690514587
NOAA 20 [+]             
1 43013U 17073A   21275.46124187  .00000002  00000-0  21747-4 0  9996
2 43013  98.7262 212.5009 0001398  79.0950 281.0384 14.19555386200620
